INTERCOSMOS 24          
1 20261U 89080A   25223.04033347  .00000894  00000+0  25501-3 0  9990
2 20261  82.6012 241.3883 1190728  61.5524 310.0324 12.59122444640289
SL-14 R/B               
1 20262U 89080C   25223.19375961  .00000198  00000+0  59462-4 0  9999
2 20262  82.5964 308.3626 1230102 305.9429  43.3500 12.50324857633843
DELTA 1 R/B             
1 20323U 89089B   25223.09016163  .00000385  00000+0  10406-3 0  9993
2 20323  97.0960  98.8117 0070884  68.3895 292.4836 14.50431891865204
ARIANE 40 R/B           
1 20443U 90005H   25223.17208463  .00000289  00000+0  10575-3 0  9991
2 20443  98.3423 284.7243 0011326 115.9569 244.2788 14.39671079862517
DELTA 2 R/B(1)          
1 20453U 90008B   25223.05768501  .00033061  00000+0  69721-3 0  9997
2 20453  35.6082  92.9904 0129662 135.9131 225.2021 15.35670998893559
COSMOS 2058             
1 20465U 90010A   25223.15235352  .00003414  00000+0  21308-3 0  9995
2 20465  82.4725 254.4223 0007294 342.8648  17.2334 15.09187252910466
SL-14 R/B               
1 20466U 90010B   25223.16758220  .00000408  00000+0  46894-4 0  9999
2 20466  82.5017 105.0793 0018345 274.2410  85.6708 14.83302601897274
SL-14 R/B               
1 20511U 90018B   25222.98334796  .00000420  00000+0  50043-4 0  9990
2 20511  82.5188  60.0117 0017772  67.6008 292.7087 14.81883569891375
HST                     
1 20580U 90037B   25222.80051717  .00006978  00000+0  25669-3 0  9996
2 20580  28.4690  34.5871 0001960 343.4910  16.5621 15.25850415741036
SL-16 R/B               
1 20625U 90046B   25223.17410061  .00000114  00000+0  83264-4 0  9990
2 20625  71.0006  20.0157 0016401 265.6214  94.3034 14.14975824818616
COSMOS 2084             
1 20663U 90055A   25223.00466197  .00003687  00000+0  27259-3 0  9994
2 20663  62.7926 333.2374 0052300 160.3066 200.0069 15.03968908904614
SL-6 R/B(2)             
1 20666U 90055D   25223.05425978  .00001645  00000+0  13863-3 0  9992
2 20666  62.7813 249.3842 0018059 209.0772 150.9323 15.02234781906530
SL-8 R/B                
1 20775U 90078B   25222.95569177  .00018836  00000+0  61510-3 0  9998
2 20775  82.9041  79.5049 0395872 358.5235   1.4772 14.79983008778031
SL-8 R/B                
1 21088U 91006B   25223.25833701  .00000090  00000+0  75178-4 0  9998
2 21088  82.9458 326.5880 0021098 264.0129 114.2271 13.77468344735104
OKEAN-3                 
1 21397U 91039A   25223.02872618  .00004187  00000+0  30842-3 0  9991
2 21397  82.5191 180.6628 0013855 334.9237  25.1314 15.03038398833374
COSMOS 2151             
1 21422U 91042A   25223.22443470  .00001484  00000+0  12002-3 0  9991
2 21422  82.4967 286.4734 0013739  55.6487 304.6034 14.99020509831653
SL-14 R/B               
1 21423U 91042B   25222.99284305  .00000398  00000+0  47613-4 0  9995
2 21423  82.4904  57.7421 0016308 209.1967 150.8337 14.81580918821877
ERS-1                   
1 21574U 91050A   25223.06383132  .00000306  00000+0  11282-3 0  9999
2 21574  98.7934 230.9776 0033245 106.5162 253.9681 14.39230240785432
ARIANE 40 R/B           
1 21610U 91050F   25222.92171106  .00000318  00000+0  10818-3 0  9997
2 21610  98.2356 277.6918 0003132  17.5919 342.5380 14.42672604788606
INTERCOSMOS 25          
1 21819U 91086A   25223.00430293  .00000728  00000+0  14225-3 0  9993
2 21819  82.6005  77.3241 1489810 210.8665 139.5951 12.11155032471171
SL-8 R/B                
1 21876U 92008B   25223.29906516 -.00000009  00000+0 -25162-4 0  9995
2 21876  82.9231  64.2450 0034817   4.5493 169.2740 13.75939296680489
SL-8 R/B                
1 21938U 92020B   25223.24568072  .00000073  00000+0  60062-4 0  9991
2 21938  82.9326 310.0525 0029593 162.7607 215.0601 13.75518530672208
USA 81                  
1 21949U 92023A   25223.02996763  .00000167  00000+0  54675-4 0  9991
2 21949  85.0039 252.9315 0001973  67.7610 292.3792 14.32259990 64633
COSMOS 2219             
1 22219U 92076A   25223.07109658 -.00000133  00000+0 -45053-4 0  9999
2 22219  71.0590  98.3446 0017631 168.8703 191.2813 14.14031958688604
SL-16 R/B               
1 22220U 92076B   25223.08522102 -.00000006  00000+0  21040-4 0  9993
2 22220  70.9992 271.9959 0011036  49.0013 326.4362 14.16815158692009
COSMOS 2221             
1 22236U 92080A   25223.16030119  .00001742  00000+0  15649-3 0  9990
2 22236  82.5051 120.5312 0014530 173.5246 186.6166 14.95056371749323
SL-16 R/B               
1 22285U 92093B   25223.06852940  .00000048  00000+0  49166-4 0  9991
2 22285  71.0215  86.4039 0006526 270.0697  89.9678 14.15407278683358
COSMOS 2228             
1 22286U 92094A   25223.24223821  .00001779  00000+0  15631-3 0  9994
2 22286  82.5156  78.6113 0017080 292.9018  67.0400 14.95912444744580
SL-16 R/B               
1 22566U 93016B   25222.94663243  .00000151  00000+0  10215-3 0  9998
2 22566  71.0089 297.7931 0012522 282.0264  77.9455 14.15268143672357
COSMOS 2242             
1 22626U 93024A   25223.20588448  .00001782  00000+0  15887-3 0  9998
2 22626  82.5189 107.8372 0015261 296.3845  63.5810 14.95363410748922
SL-16 R/B               
1 22803U 93059B   25223.07094775 -.00000188  00000+0 -69434-4 0  9992
2 22803  70.9896  95.2679 0016928 178.8504 181.2662 14.17183354649690
ARIANE 40 R/B           
1 22830U 93061H   25223.21734693  .00000224  00000+0  98222-4 0  9997
2 22830  98.5234 290.8964 0010771 181.0090 179.1074 14.32689458663960
COSMOS 2278             
1 23087U 94023A   25222.83596558  .00000262  00000+0  16160-3 0  9996
2 23087  71.0522 256.2219 0009560 338.0370  22.0341 14.14314227614990
SL-16 R/B               
1 23088U 94023B   25223.26252895  .00000262  00000+0  16012-3 0  9994
2 23088  71.0007 152.7902 0005445 262.9975  97.0529 14.14977779616328
SL-16 R/B               
1 23343U 94074B   25223.07798416  .00000470  00000+0  70151-4 0  9993
2 23343  97.7363 257.1735 0006655 174.4615 207.5465 14.79094431656112
SL-16 R/B               
1 23405U 94077B   25222.97286096  .00000145  00000+0  98717-4 0  9996
2 23405  70.9824  75.7856 0001415 182.9671 177.1443 14.15527661586418
ARIANE 40+ R/B          
1 23561U 95021B   25223.22906480  .00000295  00000+0  10839-3 0  9998
2 23561  98.4802 292.2168 0007711  59.0920 355.6016 14.39566421588964
SL-16 R/B               
1 23705U 95058B   25223.11071766 -.00000275  00000+0 -11619-3 0  9993
2 23705  71.0197 262.3516 0010218  77.9802 282.2466 14.15456034538058
SL-16 R/B               
1 24298U 96051B   25223.04553676 -.00000162  00000+0 -61392-4 0  9991
2 24298  70.7623 261.0713 0012979  85.6993 274.5610 14.12401999491908
ORBVIEW 2 (SEASTAR)     
1 24883U 97037A   25222.97219752  .00000271  00000+0  11094-3 0  9993
2 24883  98.8333  17.0279 0001704 350.2130   9.9021 14.35285598478249
SL-16 R/B               
1 25400U 98043G   25223.09615211  .00000041  00000+0  36057-4 0  9993
2 25400  98.7903 170.3727 0008731 265.3439  94.6743 14.25982962408976
SL-16 R/B               
1 25407U 98045B   25223.08356720  .00000278  00000+0  16480-3 0  9997
2 25407  71.0096 264.4615 0008286 331.6027  28.4643 14.16147436397280
ISS (ZARYA)             
1 25544U 98067A   25222.92732718  .00008419  00000+0  15293-3 0  9996
2 25544  51.6346  35.7476 0001307 177.0594 183.0403 15.50446935523655
CZ-4B R/B               
1 25732U 99025C   25222.88442860  .00000074  00000+0  56967-4 0  9994
2 25732  98.6960 266.7931 0036289 229.8613 303.6801 14.18202822358289
OKEAN-O                 
1 25860U 99039A   25222.99878624  .00000684  00000+0  97574-4 0  9990
2 25860  97.9794 279.6513 0000946  77.0761 283.0556 14.79877656403228
SL-16 R/B               
1 25861U 99039B   25223.11477577  .00000558  00000+0  78275-4 0  9995
2 25861  98.0319 277.1307 0014081 216.1059 143.9203 14.81343119405689
DELTA 2 R/B             
1 25876U 99041E   25223.27248071  .00002142  00000+0  38447-3 0  9993
2 25876  51.7610  61.1014 0506870  87.7856 278.1002 14.10945775333316
HELIOS 1B               
1 25977U 99064A   25222.98235210  .00001437  00000+0  16850-3 0  9998
2 25977  98.1871 113.9979 0002246  63.3639 296.7806 14.86624565653941
TERRA                   
1 25994U 99068A   25223.30933053  .00000464  00000+0  10435-3 0  9990
2 25994  97.9942 279.3888 0003526 115.5217 316.5374 14.60758562364369
SL-16 R/B               
1 26070U 00006B   25223.18580105  .00000024  00000+0  36676-4 0  9990
2 26070  71.0022 180.4361 0015173 148.7572 211.4456 14.15784938318761
TITAN 4B R/B            
1 26474U 00047B   25223.24966105  .00003013  00000+0  20170-3 0  9990
2 26474  67.9887 271.3097 0048172 276.8571  82.7098 15.07498207361172
ENVISAT                 
1 27386U 02009A   25223.29281046  .00000107  00000+0  48522-4 0  9995
2 27386  98.3374 177.3150 0001232  83.5402  81.1078 14.38935238228919
IDEFIX & ARIANE 42P R/B 
1 27422U 02021B   25223.23214909  .00000252  00000+0  11247-3 0  9992
2 27422  98.5613 159.6628 0013118  87.0848 273.1836 14.30823234213924
AQUA                    
1 27424U 02022A   25223.26624682  .00000970  00000+0  20585-3 0  9993
2 27424  98.3817 182.3242 0000968 109.0164 358.5577 14.61396643237996
CZ-4B R/B               
1 27432U 02024C   25222.99744441  .00000039  00000+0  43410-4 0  9998
2 27432  98.9196 272.0614 0049120 260.9211 145.6485 14.14495102199453
MIDORI II (ADEOS-II)    
1 27597U 02056A   25223.14449946  .00000259  00000+0  12013-3 0  9993
2 27597  98.7412 175.6073 0000276 125.1028 235.0179 14.29083542180224
H-2A R/B                
1 27601U 02056E   25223.13495413  .00000325  00000+0  12842-3 0  9992
2 27601  98.2837 186.9619 0071713  69.4868 301.9210 14.33542120183941
CZ-4B R/B               
1 28059U 03049C   25223.20901691  .00000354  00000+0  93113-4 0  9994
2 28059  98.6640 205.1909 0048925 152.7997 207.5777 14.54726342155995
CZ-2C R/B               
1 28222U 04012C   25223.14627157  .00023183  00000+0  46431-3 0  9997
2 28222  97.7616 266.3913 0021395   2.7172 357.4189 15.46502422171572
